index,name,address,latitude,longitude,url
56,Le Calandre,"via Liguria 1, località Sarmeola, Rubano, 35030, Italy",45.4215425,11.8096633,https://guide.michelin.com/en/veneto/rubano/restaurant/le-calandre
66,Taian Table,"No.161, Lane 465, Zhenning Road, Shanghai, China Mainland",31.221807,121.474049,https://guide.michelin.com/en/shanghai-municipality/shanghai/restaurant/taian-table
67,Ultraviolet by Paul Pairet,"18 Zhongshan Dong Yi Road, Shanghai, China Mainland",31.240358,121.48509,https://guide.michelin.com/en/shanghai-municipality/shanghai/restaurant/ultraviolet-by-paul-pairet
87,Odette,"1 St. Andrew's Road (entrance via Supreme Court wing's foyer), 178957, Singapore",1.2896459,103.8516,https://guide.michelin.com/en/singapore-region/singapore/restaurant/odette
97,The Inn at Little Washington,"309 Middle St., Washington, 22747, United States",38.7134767,-78.1595348,https://guide.michelin.com/en/district-of-columbia/washington-dc/restaurant/the-inn-at-little-washington
111,Le 1947 - Cheval Blanc,"Le Jardin Alpin, Courchevel 1850, Courchevel, 73120, France",45.4094877,6.6338696,https://guide.michelin.com/en/auvergne-rhone-alpes/courchevel/restaurant/le-1947
187,"Le Manoir aux Quat' Saisons, a Belmond Hotel","Church Road, Great Milton, OX44 7PD, United Kingdom",51.7169058,-1.0915663,https://guide.michelin.com/en/oxfordshire/great-milton/restaurant/belmond-le-manoir-aux-quat-saisons
208,Chao Shang Chao,"10 Guanghua Road, Beijing, China Mainland",39.910992,116.461892,https://guide.michelin.com/en/beijing-municipality/beijing/restaurant/chao-shang-chao
209,Shanghai Cuisine,"2A Gongrentiyuchang North Road, Beijing, China Mainland",39.930881,116.453254,https://guide.michelin.com/en/beijing-municipality/beijing/restaurant/shanghai-cuisine
210,Jingji,"83A Jianguo Road, Beijing, China Mainland",39.910623,116.4856,https://guide.michelin.com/en/beijing-municipality/beijing/restaurant/jingji
228,Yu Zhi Lan,"24 Changfa Street, Chengdu, China Mainland",30.669182,104.055887,https://guide.michelin.com/en/chengdu-municipality/chengdu/restaurant/yu-zhi-lan-1196150
325,Castel finedining,"vicolo dei Castagni 18, Tirol, 39019, Italy",46.6862223,11.1568653,https://guide.michelin.com/en/trentino-alto-adige/tirol/restaurant/trenkerstube
362,Ji Pin Court,"55 South Wulumuqi Road, Shanghai, China Mainland",31.206108,121.448654,https://guide.michelin.com/en/shanghai-municipality/shanghai/restaurant/ji-pin-court
364,L'Atelier de Joël Robuchon,"18 Zhongshan Dong Yi Road, Shanghai, China Mainland",31.239767,121.4854,https://guide.michelin.com/en/shanghai-municipality/shanghai/restaurant/l-atelier-de-joel-robuchon-506708
365,8 ½ Otto e Mezzo Bombana,"169 Yuanmingyuan Road, Shanghai, China Mainland",31.244394,121.48346,https://guide.michelin.com/en/shanghai-municipality/shanghai/restaurant/8-%C2%BD-otto-e-mezzo-bombana
366,Imperial Treasure Fine Chinese Cuisine (Huangpu),"99 East Beijing Road, Shanghai, China Mainland",31.22318,121.464502,https://guide.michelin.com/en/shanghai-municipality/shanghai/restaurant/imperial-treasure-fine-chinese-cuisine-huangpu
367,Canton 8 (Runan Street),"63 Runan Street, Shanghai, China Mainland",31.204708,121.47799,https://guide.michelin.com/en/shanghai-municipality/shanghai/restaurant/canton-8-runan-street
368,Bao Li Xuan,"Lane 108, North Shanxi Road, Shanghai, China Mainland",31.242798,121.482315,https://guide.michelin.com/en/shanghai-municipality/shanghai/restaurant/bao-li-xuan
379,Numata,"1-10-2 Sonezakishinchi, Kita-ku, Osaka, 530-0002, Japan",34.697954,135.497901,https://guide.michelin.com/en/osaka-region/osaka/restaurant/numata
393,Miyamaso,"375 Hanaseharachicho, Sakyo-ku, Kyoto, 601-1102, Japan",35.233154,135.793011,https://guide.michelin.com/en/kyoto-region/kyoto/restaurant/miyamaso
417,Taian Table,"368 Huanshi East Road, Guangzhou, China Mainland",23.138026,113.280695,https://guide.michelin.com/en/guangdong-province/guangzhou/restaurant/taian-table-1195975
418,Imperial Treasure Fine Chinese Cuisine,"222 Xingmin Road, Guangzhou, China Mainland",23.118473,113.326514,https://guide.michelin.com/en/guangdong-province/guangzhou/restaurant/imperial-treasure-fine-chinese-cuisine-559150
419,Jiang by Chef Fei,"389 Tianhe Road, Guangzhou, China Mainland",23.137134,113.327867,https://guide.michelin.com/en/guangdong-province/guangzhou/restaurant/jiang-by-chef-fei
487,Cà d'Oro,"Via Mezdi 27, Saint Moritz, 7500, Switzerland",46.4825552,9.833657,https://guide.michelin.com/en/graubunden/sankt-moritz/restaurant/ca-d-oro
506,Auberge du Cheval Blanc,"4 rue de Wissembourg, Lembach, 67510, France",49.003531,7.7902036,https://guide.michelin.com/en/grand-est/lembach/restaurant/auberge-du-cheval-blanc4111
541,Château de Beaulieu - Christophe Dufossé,"1098 route de Lillers, Busnes, 62350, France",50.582466,2.511812,https://guide.michelin.com/en/hauts-de-france/busnes/restaurant/meurin
573,La Chèvre d'Or,"Rue du Barri, Èze, 06360, France",43.727378,7.3620885,https://guide.michelin.com/en/provence-alpes-cote-dazur/ze/restaurant/la-chevre-d-or
699,Schwitzer's am Park,"Etzenroterstraße 4, Waldbronn, 76337, Germany",48.9209362,8.4748202,https://guide.michelin.com/en/baden-wurttemberg/waldbronn/restaurant/schwitzer-s-am-park
702,Gourmet Restaurant im Schlosshotel Münchhausen,"Schwöbber 9, Aerzen, 31855, Germany",52.0690278,9.2523632,https://guide.michelin.com/en/niedersachsen/aerzen/restaurant/gourmet-restaurant-im-schlosshotel-munchhausen
794,Eckert,"Basler Straße 20, Grenzach-Wyhlen, 79639, Germany",47.553217,7.6584421,https://guide.michelin.com/en/baden-wurttemberg/grenzach-wyhlen/restaurant/eckert
881,De Mondion,"Council Square, Mdina, MDN 1050, Malta",35.8851399,14.4046065,https://guide.michelin.com/en/malta-northern-region/mdina/restaurant/de-mondion
892,Loam,"Geata na Cathrach, Fairgreen Road, Galway, H91 W26K, Ireland",53.2741434,-9.045005,https://guide.michelin.com/en/galway/galway/restaurant/loam
950,Forest Side,"Keswick Road, Grasmere, LA22 9RN, United Kingdom",54.4639611,-3.0158049,https://guide.michelin.com/en/cumbria/grasmere/restaurant/forest-side
1059,Da Dong (Dongsi 10th Alley),"22A Dongsi 10th Alley, Beijing, China Mainland",39.93026,116.424984,https://guide.michelin.com/en/beijing-municipality/beijing/restaurant/da-dong-dongsi-10th-alley
1060,Seventh Son,"1 Jianguomenwai Street, Beijing, China Mainland",39.910984,116.452361,https://guide.michelin.com/en/beijing-municipality/beijing/restaurant/seventh-son-1186794
1061,Furong,"9C Jinrong Street, Beijing, China Mainland",39.916154,116.35324,https://guide.michelin.com/en/beijing-municipality/beijing/restaurant/furong
1063,Zijin Mansion,"5-15 Jinyu Hutong, Beijing, China Mainland",39.916259,116.414122,https://guide.michelin.com/en/beijing-municipality/beijing/restaurant/zijin-mansion
1065,Zhiguan Courtyard,"12 Jinyu Hutong, Beijing, China Mainland",39.91405,116.409091,https://guide.michelin.com/en/beijing-municipality/beijing/restaurant/zhiguan
1066,Cai Yi Xuan,"48 Liangmaqiao Road, Beijing, China Mainland",39.948977,116.461067,https://guide.michelin.com/en/beijing-municipality/beijing/restaurant/cai-yi-xuan
1070,The Georg,"Dianmen East Street, Beijing, China Mainland",39.934451,116.39889,https://guide.michelin.com/en/beijing-municipality/beijing/restaurant/the-georg
1071,Vege Wonder,"269 Wangfujing Street, Beijing, China Mainland",39.911324,116.402415,https://guide.michelin.com/en/beijing-municipality/beijing/restaurant/vege-wonder
1072,Poetry‧Wine (Dongsanhuan Middle Road),"61 Dongsanhuan Middle Road, Beijing, China Mainland",39.897639,116.454715,https://guide.michelin.com/en/beijing-municipality/beijing/restaurant/poetry%E2%80%A7wine
1074,Mio,"48 Liangmaqiao Road, Beijing, China Mainland",39.95071,116.4672,https://guide.michelin.com/en/beijing-municipality/beijing/restaurant/mio
1075,Lu Style (Anding Road),"Anding Road, Beijing, China Mainland",39.977857,116.398637,https://guide.michelin.com/en/beijing-municipality/beijing/restaurant/lu-style
1076,Jing Yaa Tang,"11 Sanlitun Road, Beijing, China Mainland",39.9404737,116.4615173,https://guide.michelin.com/en/beijing-municipality/beijing/restaurant/jing-yaa-tang
1077,Xin Rong Ji (Jianguomenwai Street),"2 Jianguomenwai Street, Beijing, China Mainland",39.906171,116.453263,https://guide.michelin.com/en/beijing-municipality/beijing/restaurant/xin-rong-ji-jianguomenwai-street
1078,Country Kitchen,"1 Chaoyangmenwai Street, Beijing, China Mainland",39.918808,116.454181,https://guide.michelin.com/en/beijing-municipality/beijing/restaurant/country-kitchen
1079,The Tasty House,"4 Gongrentiyuchang North Road, Beijing, China Mainland",39.930362,116.452431,https://guide.michelin.com/en/beijing-municipality/beijing/restaurant/the-tasty-house
1080,Huaiyang Fu,"198 Andingmenwai Street, Beijing, China Mainland",39.95238,116.402769,https://guide.michelin.com/en/beijing-municipality/beijing/restaurant/huaiyang-fu
1083,In Love (Gongti East Road),"Gongrentiyuchang East Road, Beijing, China Mainland",39.927315,116.443233,https://guide.michelin.com/en/beijing-municipality/beijing/restaurant/in-love-gongti-east-road
1084,The Beijing Kitchen,"87 Jianguo Road, Beijing, China Mainland",39.909316,116.473274,https://guide.michelin.com/en/beijing-municipality/beijing/restaurant/the-beijing-kitchen
1085,Lao Ji Tang (Gongrentiyuchang South Road),"15 Gongrentiyuchang South Road, Beijing, China Mainland",39.925181,116.442599,https://guide.michelin.com/en/beijing-municipality/beijing/restaurant/lao-ji-tang
1145,Mi Xun Teahouse,"81 Bitieshi Street, Chengdu, 610021, China Mainland",30.654727,104.081984,https://guide.michelin.com/en/chengdu-municipality/chengdu/restaurant/mi-xun-teahouse
1146,Chaimen Hui,"289 Jiaozi Avenue, Chengdu, China Mainland",30.584093,104.053347,https://guide.michelin.com/en/chengdu-municipality/chengdu/restaurant/chaimen-hui
1147,Silver Pot,"300 Jiaozi Avenue, Chengdu, China Mainland",30.5856,104.056593,https://guide.michelin.com/en/chengdu-municipality/chengdu/restaurant/silver-pot
1148,Chengdu Restaurant,"No. 46-1, Section 4, Renmin South Road, Chengdu, China Mainland",30.618011,104.064047,https://guide.michelin.com/en/chengdu-municipality/chengdu/restaurant/chengdu-restaurant
1149,Ma's Kitchen,"1 East Kangshi Street, Chengdu, China Mainland",30.653874,104.081227,https://guide.michelin.com/en/chengdu-municipality/chengdu/restaurant/ma-s-kitchen
1150,Fang Xiang Jing,"16 Majia Garden Road, Chengdu, China Mainland",30.685754,104.051369,https://guide.michelin.com/en/chengdu-municipality/chengdu/restaurant/fang-xiang-jing
1152,Xu's Cuisine,"1 Wangjiang Road, Chengdu, China Mainland",30.639715,104.086383,https://guide.michelin.com/en/chengdu-municipality/chengdu/restaurant/xu-s-cuisine
1178,PRU,"60/1 Mu 6, Si Sunthon Road, Choeng Talay, Phuket, 83110, Thailand",8.0362567,98.2757375,https://guide.michelin.com/en/phuket-region/phuket/restaurant/pru
1214,Espacio N,"Carretera de Tarragona a San Sebastián, Esquedas, 22810, Spain",42.2117392,-0.5474034,https://guide.michelin.com/en/aragon/esquedas/restaurant/espacio-n
1219,Hospedería El Batán,"Carretera A 1512, Tramacastilla, 44112, Spain",40.42797,-1.5602059,https://guide.michelin.com/en/aragon/tramacastilla/restaurant/hospederia-el-batan
1293,Sala,"Plaza Major 17, Olost, 08516, Spain",41.9859741,2.0959879,https://guide.michelin.com/en/catalunya/olost/restaurant/sala
1540,HANE,"14 Eonju-ro 172-gil, Gangnam-gu, SEOUL, 06017, South Korea",37.5275808,127.0348773,https://guide.michelin.com/en/seoul-capital-area/kr-seoul/restaurant/hane
1542,Table for Four,"2F, 11 Sapyung-daero 14-gil, Seocho-gu, SEOUL, South Korea",37.49769,126.99442,https://guide.michelin.com/en/seoul-capital-area/kr-seoul/restaurant/table-for-four
1603,Andrea Monesi - Locanda di Orta,"via Olina 18, Orta San Giulio, 28016, Italy",45.7987349,8.405835,https://guide.michelin.com/en/piemonte/orta-san-giulio/restaurant/locanda-di-orta
1614,Il Falconiere,"località San Martino a Bocena 370, San Martino, 52044, Italy",43.2821868,11.9763509,https://guide.michelin.com/en/toscana/san-martino/restaurant/il-falconiere
1636,Dolomieu,"via Castelletto Inferiore 10, Madonna di Campiglio, 38086, Italy",46.223693,10.8257548,https://guide.michelin.com/en/trentino-alto-adige/madonna-di-campiglio/restaurant/dolomieu
1714,Damiano Nigro,"Borgata Cerequio 18, La Morra, 12064, Italy",44.6245783,7.9389166,https://guide.michelin.com/en/piemonte/la-morra/restaurant/damiano-nigro-1194935
1749,Il Parco di Villa Grey,"viale Italico 84, Forte dei Marmi, 55042, Italy",43.9665684,10.1573065,https://guide.michelin.com/en/toscana/forte-dei-marmi/restaurant/il-parco-di-villa-grey
1770,Aminta Resort,"via Trovano 3, Genazzano, 00030, Italy",41.81092,12.966885,https://guide.michelin.com/en/lazio/genazzano/restaurant/aminta-resort
1777,Cannavacciuolo Countryside,"via Ticciano 137, Ticciano, 80069, Italy",40.6456678,14.4515515,https://guide.michelin.com/en/campania/ticciano/restaurant/cannavacciuolo-countryside
1779,Antica Corte Pallavicina,"strada del Palazzo Due Torri 3, Polesine Parmense, 43016, Italy",45.0212099,10.0859923,https://guide.michelin.com/en/emilia-romagna/polesine-parmense/restaurant/antica-corte-pallavicina
1787,La Serra,"via Marconi 169, località Belvedere Fornillo, Positano, 84017, Italy",40.6262458,14.4785098,https://guide.michelin.com/en/campania/positano/restaurant/la-serra
1897,Maison Lameloise,"501 Middle Yincheng Road, Shanghai, China Mainland",31.235929,121.500972,https://guide.michelin.com/en/shanghai-municipality/shanghai/restaurant/maison-lameloise-563686
1898,Fu 1015,"1015 Yuyuan Road, Shanghai, China Mainland",31.218564,121.429009,https://guide.michelin.com/en/shanghai-municipality/shanghai/restaurant/fu-1015
1899,T'ang Court,"99 Madang Road, Shanghai, China Mainland",31.208949,121.445604,https://guide.michelin.com/en/shanghai-municipality/shanghai/restaurant/t-ang-court-506725
1900,Shang-High Cuisine,"1108 Mei Hua Road, Shanghai, China Mainland",31.23491,121.480586,https://guide.michelin.com/en/shanghai-municipality/shanghai/restaurant/shang-high-cuisine
1903,Moose (Changning),"No.1, Lane 119, Xinhua Road, Shanghai, China Mainland",31.20189,121.4297,https://guide.michelin.com/en/shanghai-municipality/shanghai/restaurant/moose-changning
1904,Yi Long Court,"32 Zhongshan Dong Yi Road, Shanghai, China Mainland",31.243758,121.507579,https://guide.michelin.com/en/shanghai-municipality/shanghai/restaurant/yi-long-court
1905,Jin Xuan,"8 Century Avenue, Shanghai, China Mainland",31.238417,121.498024,https://guide.michelin.com/en/shanghai-municipality/shanghai/restaurant/jin-xuan
1906,Yu Zhi Lan,"851 Julu Road, Shanghai, China Mainland",31.218916,121.449455,https://guide.michelin.com/en/shanghai-municipality/shanghai/restaurant/yu-zhi-lan
1907,Obscura,"538 Xikang Road, Shanghai, China Mainland",31.236348,121.442233,https://guide.michelin.com/en/shanghai-municipality/shanghai/restaurant/obscura
1908,Seventh Son,"1515 West Nanjing Road, Shanghai, China Mainland",31.219598,121.460072,https://guide.michelin.com/en/shanghai-municipality/shanghai/restaurant/seventh-son-jingan
1909,Tea Culture (East Beijing Road),"99 East Beijing Road, Shanghai, China Mainland",31.22318,121.464502,https://guide.michelin.com/en/shanghai-municipality/shanghai/restaurant/tea-culture-east-beijing-road
1910,Moose (Pudong),"899 South Pudong Road, Shanghai, China Mainland",31.230604,121.51517,https://guide.michelin.com/en/shanghai-municipality/shanghai/restaurant/moose-pudong
1912,Meet the Bund,"588 Zhongshan Dong Er Road, Shanghai, China Mainland",31.228818,121.493593,https://guide.michelin.com/en/shanghai-municipality/shanghai/restaurant/meet-the-bund
1913,Ming Court,"333 Shenhong Road, Shanghai, China Mainland",31.19512,121.31633,https://guide.michelin.com/en/shanghai-municipality/shanghai/restaurant/ming-court-570629
1914,Phénix,"1 Changde Road, Shanghai, 200040, China Mainland",31.223997,121.44368,https://guide.michelin.com/en/shanghai-municipality/shanghai/restaurant/phenix
1916,Ren He Guan (Zhaojiabang Road),"407 Zhaojiabang Road, Shanghai, China Mainland",31.203604,121.453734,https://guide.michelin.com/en/shanghai-municipality/shanghai/restaurant/ren-he-guan-zhaojiabang-road
1917,Sheng Yong Xing,"20 Guangdong Road, Shanghai, China Mainland",31.236447,121.486181,https://guide.michelin.com/en/shanghai-municipality/shanghai/restaurant/sheng-yong-xing
1918,Yong Yi Ting,"111 South Pudong Road, Shanghai, China Mainland",31.245216,121.50343,https://guide.michelin.com/en/shanghai-municipality/shanghai/restaurant/yong-yi-ting
1922,Canton Table,"3 Zhongshan Dong Yi Road, Shanghai, 200002, China Mainland",31.236093,121.486211,https://guide.michelin.com/en/shanghai-municipality/shanghai/restaurant/canton-table
1923,Il Ristorante - Niko Romito,"Lane 108, North Shanxi Road, Shanghai, China Mainland",31.229977,121.48704,https://guide.michelin.com/en/shanghai-municipality/shanghai/restaurant/il-ristorante-niko-romito-563683
1924,Jean Georges,"3 Zhongshan Dong Yi Road, Shanghai, China Mainland",31.218637,121.490738,https://guide.michelin.com/en/shanghai-municipality/shanghai/restaurant/jean-georges-506640
1927,Amazing Chinese Cuisine (Changning),"1665 Hongqiao Road, Shanghai, China Mainland",31.202995,121.3889,https://guide.michelin.com/en/shanghai-municipality/shanghai/restaurant/amazing-chinese-cuisine-changning
1931,Yong Fu,"59 South Maoming Road, Shanghai, China Mainland",31.220526,121.46027,https://guide.michelin.com/en/shanghai-municipality/shanghai/restaurant/yong-fu
1934,Shoroku,"1-16-18 Utsubohommachi, Nishi-ku, Osaka, 550-0004, Japan",34.684744,135.494629,https://guide.michelin.com/en/osaka-region/osaka/restaurant/shoroku
1945,Shinchi Yamamoto,"1-1-13 Dojima, Kita-ku, Osaka, 530-0003, Japan",34.6960034,135.4999736,https://guide.michelin.com/en/osaka-region/osaka/restaurant/shinchi-yamamoto
1972,Nishino,"1-9-21 Kyomachibori, Nishi-ku, Osaka, 550-0003, Japan",34.687804,135.495663,https://guide.michelin.com/en/osaka-region/osaka/restaurant/nishino
2017,Kyoboshi,"347-92 Giommachi-kitagawa, Higashiyama-ku, Kyoto, 605-0073, Japan",35.005139,135.775649,https://guide.michelin.com/en/kyoto-region/kyoto/restaurant/kyoboshi
2040,CAINOYA,"318-6 Inaricho, Kawaramachi-dori Shijo-sagaru 2chome, Shimogyo-ku, Kyoto, 600-8022, Japan",35.002515,135.768857,https://guide.michelin.com/en/kyoto-region/kyoto/restaurant/cainoya
2046,Kako Okamoto,"470-4 Tokiwacho, Higashiyama-ku, Kyoto, 605-0874, Japan",34.992366,135.77574,https://guide.michelin.com/en/kyoto-region/kyoto/restaurant/kako-okamoto
2054,Kanamean Nishitomiya,"562 Honeyanocho, Nakagyo-ku, Kyoto, 604-6084, Japan",35.006639,135.764872,https://guide.michelin.com/en/kyoto-region/kyoto/restaurant/kanamean-nishitomiya
2057,Ryoriya Maekawa,"405 Nambacho, Shimogyo-ku, Kyoto, 600-8027, Japan",34.998689,135.767871,https://guide.michelin.com/en/kyoto-region/kyoto/restaurant/ryoriya-maekawa
2073,Gion Kida,"570-192 Giommachi-minamigawa, Higashiyama-ku, Kyoto, 605-0074, Japan",35.0025444,135.7761134,https://guide.michelin.com/en/kyoto-region/kyoto/restaurant/gion-kida
2082,Noguchi Tsunagu,"371-4 Kiyomotocho, Higashiyama-ku, Kyoto, 605-0084, Japan",35.005321,135.774453,https://guide.michelin.com/en/kyoto-region/kyoto/restaurant/noguchi-tsunagu
2088,Yuyu,"8 Koyama-kitakamifusacho, Kita-ku, Kyoto, 603-8142, Japan",35.044835,135.759172,https://guide.michelin.com/en/kyoto-region/kyoto/restaurant/yuyu
2094,Kamanza Nagashima,"726-5 Shimomatsuyacho, Nakagyo-ku, Kyoto, 604-0034, Japan",35.011394,135.755809,https://guide.michelin.com/en/kyoto-region/kyoto/restaurant/kamanza-nagashima
2124,CUT,"9500 Wilshire Blvd., Beverly Hills, 90212, United States",34.067036,-118.401024,https://guide.michelin.com/en/california/beverly-hills/restaurant/cut-559418
2156,Bar Crenn,"3131 Fillmore St., San Francisco, 94123, United States",37.798435,-122.43581,https://guide.michelin.com/en/california/san-francisco/restaurant/bar-crenn
2170,Lai Heen,"3 Xing An Road, Zhujiang New Town, Guangzhou, China Mainland",23.11883,113.321816,https://guide.michelin.com/en/guangdong-province/guangzhou/restaurant/lai-heen-559155
2171,BingSheng Mansion,"2 Xiancun Road, Zhujiang New Town, Guangzhou, China Mainland",23.117404,113.322958,https://guide.michelin.com/en/guangdong-province/guangzhou/restaurant/bingsheng-mansion
2172,Suyab Courtyard・Pickmoon Gourmet,"348 Yingbin Road, Guangzhou, China Mainland",23.024632,113.32637,https://guide.michelin.com/en/guangdong-province/guangzhou/restaurant/suyab-courtyard%E3%83%BBpickmoon-gourmet
2173,Lei Garden (Yuexiu),"33 Jianshe Sixth Road, Guangzhou, China Mainland",23.136923,113.279568,https://guide.michelin.com/en/guangdong-province/guangzhou/restaurant/lei-garden-yuexiu
2174,Jade River,"1 Shamian South Street, Guangzhou, China Mainland",23.108321,113.237649,https://guide.michelin.com/en/guangdong-province/guangzhou/restaurant/jade-river
2175,BingSheng Private Kitchen,"178 Tianhe East Road, Guangzhou, China Mainland",23.137287,113.328901,https://guide.michelin.com/en/guangdong-province/guangzhou/restaurant/bingsheng-private-kitchen
2176,Wisca (Haizhu),"172 Binjiang West Road, Guangzhou, China Mainland",23.110752,113.254258,https://guide.michelin.com/en/guangdong-province/guangzhou/restaurant/wisca-haizhu
2177,Hongtu Hall,"1 Shamian South Street, Guangzhou, China Mainland",23.108321,113.237649,https://guide.michelin.com/en/guangdong-province/guangzhou/restaurant/hongtu-hall
2178,Lingnan House,"6 Zhujiang East Road, Guangzhou, China Mainland",23.119891,113.320629,https://guide.michelin.com/en/guangdong-province/guangzhou/restaurant/lingnan-house
2179,Song,"16 Zhujiang East Road, Guangzhou, China Mainland",23.12226,113.321903,https://guide.michelin.com/en/guangdong-province/guangzhou/restaurant/song
2180,Yu Yue Heen,"5 Zhujiang West Road, Zhujiang New Town, Guangzhou, China Mainland",23.119916,113.317995,https://guide.michelin.com/en/guangdong-province/guangzhou/restaurant/yu-yue-heen
2181,Famous Cuisine (Tianhe),"189 Tianhe North Road, Guangzhou, China Mainland",23.144325,113.31722,https://guide.michelin.com/en/guangdong-province/guangzhou/restaurant/famous-cuisine
2182,Rêver,"370 Yuejiang West Road, Guangzhou, China Mainland",23.109474,113.331346,https://guide.michelin.com/en/guangdong-province/guangzhou/restaurant/rever
2183,Imperial Treasure Fine Teochew Cuisine,"383 Tianhe Road, Guangzhou, China Mainland",23.137162,113.327751,https://guide.michelin.com/en/guangdong-province/guangzhou/restaurant/imperial-treasure-fine-teochew-cuisine-1190416
2220,Frederiksminde,"Klosternakken 8, Præstø, 4720, Denmark",55.1244654,12.0477692,https://guide.michelin.com/en/zealand/praesto/restaurant/frederiksminde
2234,Draga di Lovrana,"Lovranska Draga 1, Lovran, 51415, Croatia",45.2757908,14.2511936,https://guide.michelin.com/en/primorje-gorski-kotar/lovran/restaurant/draga-di-lovrana
2304,Oretachi No Nikuya,"194-1 Gongyi Road, West District, Taichung, Taipei & Taichung",24.150747,120.668141,https://guide.michelin.com/en/taichung-region/taichung/restaurant/oretachi-no-nikuya-1195583
2310,Ming Fu,"18-1, Lane 137, Section 2, Zhongshan North Road, Zhongshan District, Taipei, 104, Taipei & Taichung",25.06868,121.53061,https://guide.michelin.com/en/taipei-region/taipei/restaurant/ming-fu
2312,Mipon,"55 Lequn 2nd Road, Zhongshan District, Taipei, 110, Taipei & Taichung",25.0800929,121.5537712,https://guide.michelin.com/en/taipei-region/taipei/restaurant/mipon
2462,Rijnzicht,"Sterreschans 15, Doornenburg, 6686 MS, Netherlands",51.8902472,6.0226879,https://guide.michelin.com/en/gelderland/doornenburg/restaurant/rijnzicht
2535,L'OURS,"Route du Pas de l'Ours 41, Crans Montana, 3963, Switzerland",46.3075979,7.4598671,https://guide.michelin.com/en/wallis/ch-crans-montana/restaurant/l-ours179041
2684,La Bastide de Moustiers,"Chemin de Quinson, Moustiers-Sainte-Marie, 04360, France",43.84058,6.2179,https://guide.michelin.com/en/provence-alpes-cote-dazur/moustiers-sainte-marie/restaurant/la-bastide-de-moustiers
2693,La Gouesnière - Maison Tirel-Guérin,"Lieu-dit Le Limonay, La Gouesnière, 35350, France",48.6150771,-1.9054771,https://guide.michelin.com/en/bretagne/la-gouesniere/restaurant/la-gouesniere
2726,Le Raisin,"2 place Michel-Poisat, Pont-de-Vaux, 01190, France",46.43432,4.93919,https://guide.michelin.com/en/auvergne-rhone-alpes/pont-de-vaux/restaurant/le-raisin
2797,La Magdeleine - Mathias Dandine,"2 rond-point des Charrons, Gémenos, 13420, France",43.297618,5.6235191,https://guide.michelin.com/en/provence-alpes-cote-dazur/gmenos/restaurant/la-magdeleine-mathias-dandine
2865,A Casa di Ma,"Route de Calvi, Lumio, 20260, France",42.5811346,8.8319727,https://guide.michelin.com/en/corse/lumio/restaurant/a-casa-di-ma
2879,Le Cap,"Grand Hôtel du Cap Ferrat, 71 boulevard du Général-de-Gaulle, Saint-Jean-Cap-Ferrat, 06230, France",43.6774405,7.33063,https://guide.michelin.com/en/provence-alpes-cote-dazur/saint-jean-cap-ferrat/restaurant/le-cap
2896,Le Manoir du Lys,"Route de Juvigny-sous-Andaine, Bagnoles-de-l'Orne, 61140, France",48.561985,-0.4448214,https://guide.michelin.com/en/normandie/bagnoles-de-l-orne/restaurant/le-manoir-du-lys
2929,L'Auberge de St-Rémy-de-Provence - Fanny Rey & Jonathan Wahid,"12 boulevard Mirabeau, Saint-Rémy-de-Provence, 13210, France",43.7886522,4.8332816,https://guide.michelin.com/en/provence-alpes-cote-dazur/saint-rmy-de-provence/restaurant/fanny-rey-jonathan-wahid
2969,Le Puits du Trésor,"21 route des Quatre-Châteaux, Lastours, 11600, France",43.3346453,2.3787415,https://guide.michelin.com/en/occitanie/lastours/restaurant/le-puits-du-tresor
3045,Lalique,"Lieu-dit Peyraguey, Bommes, 33210, France",44.5493811,-0.3374123,https://guide.michelin.com/en/nouvelle-aquitaine/bommes/restaurant/lalique
3120,Hostellerie Le Prieuré Saint-Géry,"rue Lambot 9, Solre-Saint-Géry, 6500, Belgium",50.2176067,4.2434926,https://guide.michelin.com/en/hainaut/solre-saint-gry/restaurant/hostellerie-le-prieure-saint-gery
3143,Le Château de Strainchamps,"rue des Vennes 29, Fauvillers, 6637, Belgium",49.879036,5.683136,https://guide.michelin.com/en/be-luxembourg/fauvillers/restaurant/le-chateau-de-strainchamps
3198,FRANQ,"Kipdorp 10, Antwerpen, 2000, Belgium",51.2211509,4.4057647,https://guide.michelin.com/en/antwerpen/be-antwerpen/restaurant/franq
3232,Der Engel,"Talstraße 14, Sasbachwalden, 77887, Germany",48.6197585,8.1231943,https://guide.michelin.com/en/baden-wurttemberg/sasbachwalden/restaurant/engel
3248,Allgäuer Stuben,"Lindauer Straße 75, Isny im Allgäu, 88316, Germany",47.6887452,10.0314918,https://guide.michelin.com/en/baden-wurttemberg/isny-im-allgu/restaurant/allgauer-stuben
3253,Landhotel zum Hirsch,"Hauptstraße 27, Ostrach, 88356, Germany",47.9517087,9.3809385,https://guide.michelin.com/en/baden-wurttemberg/ostrach/restaurant/landhotel-zum-hirsch
3259,August,"Riepener Straße 21, Bad Nenndorf, 31542, Germany",52.3456,9.33416,https://guide.michelin.com/en/niedersachsen/bad-nenndorf/restaurant/august82886
3264,Landgasthof Schwanen,"Rheinstraße 50, Bad Bellingen, 79415, Germany",47.7321512,7.5570685,https://guide.michelin.com/en/baden-wurttemberg/bad-bellingen/restaurant/landgasthof-schwanen
3270,Aschbacher Hof,"Aschbach 3, Feldkirchen-Westerham, 83620, Germany",47.9182288,11.8183901,https://guide.michelin.com/en/bayern/feldkirchen-westerham/restaurant/aschbacher-hof
3302,Gutshof Andres,"Pettstadt 1, Kirchlauter, 96166, Germany",50.0506833,10.6953005,https://guide.michelin.com/en/bayern/kirchlauter/restaurant/gutshof-andres
3304,Zum Vaas,"Münchener Straße 88, Forstinning, 85661, Germany",48.1597254,11.8989304,https://guide.michelin.com/en/bayern/forstinning/restaurant/zum-vaas
3306,Greifen-Post,"Marktplatz 8, Feuchtwangen, 91555, Germany",49.1678395,10.3314899,https://guide.michelin.com/en/bayern/feuchtwangen/restaurant/greifen-post
3310,Gasthof Brink,"Allee 38, Hövelhof, 33161, Germany",51.8200985,8.657648,https://guide.michelin.com/en/nordrhein-westfalen/hvelhof/restaurant/gasthof-brink
3325,Melkhus,"Rothensande 1, Bad Malente-Gremsmühlen, 23714, Germany",54.1638261,10.5770158,https://guide.michelin.com/en/schleswig-holstein/bad-malente-gremsmuhlen/restaurant/melkhus
3355,Büschker's Stuben,"Kring 6, Vreden, 48691, Germany",52.080968,6.7923156,https://guide.michelin.com/en/nordrhein-westfalen/vreden/restaurant/buschker-s-stuben
3406,Landhaus Lebert,"Schloßstraße 8, Windelsbach, 91635, Germany",49.3996191,10.2994884,https://guide.michelin.com/en/bayern/windelsbach/restaurant/landhaus-lebert
3419,Ménage Bar,"Buttermelcherstraße 9, Munich, 80469, Germany",48.1326209,11.5780118,https://guide.michelin.com/en/bayern/mnchen/restaurant/menage-bar
3435,Lazarus Stube im Oberschwäbischen Hof,"Hauptstraße 9, Schwendi, 88477, Germany",48.1759407,9.975697,https://guide.michelin.com/en/baden-wurttemberg/schwendi/restaurant/esszimmer-im-oberschwabischen-hof
3439,Torkel,"Seehalde 14, Nonnenhorn, 88149, Germany",47.5755272,9.6114549,https://guide.michelin.com/en/bayern/nonnenhorn/restaurant/torkel83045
3453,Adler,"Hindenburgstraße 4, Brackenheim, 74336, Germany",49.0649146,9.065938,https://guide.michelin.com/en/baden-wurttemberg/brackenheim/restaurant/adler79939
3482,Landhaus Hadrys,"An der Halberstädter Chaussee 1, Magdeburg, 39116, Germany",52.0981133,11.5753079,https://guide.michelin.com/en/sachsen-anhalt/magdeburg/restaurant/landhaus-hadrys
3547,Hollist Arms,"The Street, Lodsworth, GU28 9BZ, United Kingdom",50.9995011,-0.679501,https://guide.michelin.com/en/west-sussex/lodsworth/restaurant/hollist-arms
3550,The Royal,"1 St Johns Road, St Leonards on Sea, TN37 6HP, United Kingdom",50.8553011,0.5606237,https://guide.michelin.com/en/east-sussex/st-leonards-on-sea/restaurant/the-royal
3560,Aquitania,"High Street, Seaview, PO34 5EX, United Kingdom",50.7204689,-1.1097587,https://guide.michelin.com/en/isle-of-wight/seaview/restaurant/seaview
3566,Bonnie Badger,"Main Street, Gullane, EH31 2AB, United Kingdom",56.0351457,-2.8309937,https://guide.michelin.com/en/east-lothian/gullane/restaurant/bonnie-badger
3648,Rong Cuisine (Baiziwan South Er Road),"77 Baiziwan South Er Road, Beijing, China Mainland",39.9030002,116.4812986,https://guide.michelin.com/en/beijing-municipality/beijing/restaurant/rong-cuisine-baiziwan-south-er-road
3649,The Red Chamber,"1 Jianguomenwai Street, Beijing, China Mainland",39.912885,116.458486,https://guide.michelin.com/en/beijing-municipality/beijing/restaurant/the-red-chamber
3651,Bao Du Jin Sheng Long,"Lane 1, Liupukang, Ande Road, Beijing, China Mainland",39.950879,116.384139,https://guide.michelin.com/en/beijing-municipality/beijing/restaurant/bao-du-jin-sheng-long
3653,Jingyi (Xicheng),"2 Liulichang East Street, Beijing, China Mainland",39.893798,116.383063,https://guide.michelin.com/en/beijing-municipality/beijing/restaurant/jingyi
3654,Liu Quan Ju,"176 Xinjiekou South Street, Beijing, China Mainland",39.932399,116.367123,https://guide.michelin.com/en/beijing-municipality/beijing/restaurant/liu-quan-ju
3655,Zen,"97 Qianmen Street, Beijing, China Mainland",39.893083,116.391533,https://guide.michelin.com/en/beijing-municipality/beijing/restaurant/zen-1196741
3656,Niujie Halal Man Heng Ji,"14 Ping'anli West Street, Beijing, China Mainland",39.930741,116.361468,https://guide.michelin.com/en/beijing-municipality/beijing/restaurant/niujie-halal-man-heng-ji
3657,No. 69 Fangzhuanchang Zhajiangmian (Fangzhuanchang Hutong),"1 Fangzhuanchang Hutong, Beijing, China Mainland",39.93683,116.39342,https://guide.michelin.com/en/beijing-municipality/beijing/restaurant/no-69-fangzhuanchang-zhajiangmian
3661,Xi Yuan Ju (Qianmen Street),"2A Qianmen Street, Beijing, China Mainland",39.89811,116.393916,https://guide.michelin.com/en/beijing-municipality/beijing/restaurant/xi-yuan-ju-qianmen-street
3662,Yinsan Douzhi (East Xiaoshi Street),"176 East Xiaoshi Street, Beijing, China Mainland",39.889111,116.406674,https://guide.michelin.com/en/beijing-municipality/beijing/restaurant/yinsan-douzhi
3663,Tong He Ju (Yuetan South Street),"71A Yuetan South Street, Sanlihe, Beijing, China Mainland",39.912952,116.333821,https://guide.michelin.com/en/beijing-municipality/beijing/restaurant/tong-he-ju-yuetan-south-street
3665,Keaami (Chaoyang),"101 Chaoyang North Road, Beijing, China Mainland",39.922485,116.512532,https://guide.michelin.com/en/beijing-municipality/beijing/restaurant/keaami
3681,Both Street,"5-7 Fung Yau Street North, Hong Kong",22.4437137,114.0336538,https://guide.michelin.com/en/hong-kong-region/hong-kong/restaurant/both-street
3710,Dragon Inn,"Miles 19, Castle Peak Road, Hong Kong",22.3804027,113.9820092,https://guide.michelin.com/en/hong-kong-region/hong-kong/restaurant/dragon-inn
3737,Chanyue Vegetarian,"No. 48, Section 4, Renmin South Road, Chengdu, China Mainland",30.614718,104.064087,https://guide.michelin.com/en/chengdu-municipality/chengdu/restaurant/chanyue-vegetarian
3738,Ting Yuan 399,"399 Jingjusi, Chengdu, China Mainland",30.623461,104.104228,https://guide.michelin.com/en/chengdu-municipality/chengdu/restaurant/ting-yuan-399
3739,Ming Ting Xiao Guan,"54 Dacisi Road, Chengdu, China Mainland",30.658545,104.080486,https://guide.michelin.com/en/chengdu-municipality/chengdu/restaurant/ming-ting-xiao-guan
3740,Zhuan Zhuan Hui (Lianhua South Road),"27 Lianhua South Road, Chengdu, China Mainland",30.638324,104.094566,https://guide.michelin.com/en/chengdu-municipality/chengdu/restaurant/zhuan-zhuan-hui-lianhua-south-road
3741,Feng Qi Wu,"19 Chenghan South Road, Chengdu, China Mainland",30.590295,104.052441,https://guide.michelin.com/en/chengdu-municipality/chengdu/restaurant/feng-qi-wu
3743,Mind,"85 Longyang Street, Chengdu, China Mainland",30.65163,104.013675,https://guide.michelin.com/en/chengdu-municipality/chengdu/restaurant/mind
3744,Yu Jiu Xiang,"4 Xingrong East Alley, Chengdu, China Mainland",30.635943,104.047612,https://guide.michelin.com/en/chengdu-municipality/chengdu/restaurant/yu-jiu-xiang
3745,Organization South,"669 Wanxiang South Road, Chengdu, China Mainland",30.589246,104.047258,https://guide.michelin.com/en/chengdu-municipality/chengdu/restaurant/organization-south
3747,Fu Rong Huang,"66 Guanghuacun Street, Chengdu, China Mainland",30.667097,104.007964,https://guide.michelin.com/en/chengdu-municipality/chengdu/restaurant/fu-rong-huang
3748,Lao Chengdu San Yang Mian,"46 Guojielou Street, Chengdu, China Mainland",30.672154,104.05607,https://guide.michelin.com/en/chengdu-municipality/chengdu/restaurant/lao-chengdu-san-yang-mian
3750,Nai Ngieb (Phutthamonthon Sai 4),"125/21 Mu 6, Phutthamonthon Sai 4 Road, Salaya, Nakhon Pathom, 73170, Thailand",13.7844522,100.3280304,https://guide.michelin.com/en/nakhon-pathom-region/nakhon-pathom/restaurant/nai-ngieb-phutthamonthon-sai-4
3752,Baan Benjarong Pai (The Crystal SB Ratchapruek),"555/9 Mu 1, Ratchapruek Road, Maha Sawat, Nonthaburi, 11130, Thailand",13.8093876,100.4482496,https://guide.michelin.com/en/nonthaburi-region/nonthaburi/restaurant/baan-benjarong-pai
3754,Fried Banana Rama 5,"116/ Soi 1, Bang Si Thong, Nonthaburi, 11130, Thailand",13.8231029,100.47929,https://guide.michelin.com/en/nonthaburi-region/nonthaburi/restaurant/fried-banana-rama-5
3756,Kaeng Pa (Loong Sa-Nga),"285/162-3 Ngamwongwarn 23 Alley Lane 11, Bang Khen, Nonthaburi, 11000, Thailand",13.8652189,100.5356793,https://guide.michelin.com/en/nonthaburi-region/nonthaburi/restaurant/kaeng-pa-loong-sa-nga
3757,Mon Phochana,"46/11-12 Mu 1, Petch Kasem Road, Lam Kaen, Phang-Nga, 82210, Thailand",8.5936703,98.2565435,https://guide.michelin.com/en/th-phang-nga-region/th-phang-nga/restaurant/mon-phochana
3758,Sam Chong Seafood,"39/1 Mu 9, Petch Kasem Road, Ka Lai, Phang-Nga, 82130, Thailand",8.3051273,98.4190764,https://guide.michelin.com/en/th-phang-nga-region/th-phang-nga/restaurant/sam-chong-seafood
3759,Roe Dang,"55/15 Mu 1, Petchkasem Road, Lam Kaen, Phang-Nga, 82210, Thailand",8.5978493,98.2553505,https://guide.michelin.com/en/th-phang-nga-region/th-phang-nga/restaurant/roe-dang
3762,Sanpakoi Kanomjeen,"Thongkam Market, Soi Thasatoi, Wat Ket, Chiang Mai, 50000, Thailand",18.7859078,99.0086633,https://guide.michelin.com/en/chiang-mai-region/chiang-mai/restaurant/sanpakoi-kanomjeen
3765,Go Neng (Wichayanon),"77 Praisani Road, Chang Moi, Chiang Mai, 50300, Thailand",18.7900026,99.0017724,https://guide.michelin.com/en/chiang-mai-region/chiang-mai/restaurant/go-neng-wichayanon
3769,Tune In Garden,"139 Mu 3, Pong Yang, Chiang Mai, 50180, Thailand",18.8689798,98.8217167,https://guide.michelin.com/en/chiang-mai-region/chiang-mai/restaurant/tune-in-garden
3770,Rote Yiam Beef Noodle,"164/48 Chang Khlan Road, Chang Klan, Chiang Mai, Thailand",18.7779031,98.9992155,https://guide.michelin.com/en/chiang-mai-region/chiang-mai/restaurant/rote-yiam-beef-noodle
3780,Lung Khajohn Wat Ket,"(Opposite to Wat Ketkaram), Charoenrajd Road, Chang Moi, Chiang Mai, 50000, Thailand",18.792313,99.0022428,https://guide.michelin.com/en/chiang-mai-region/chiang-mai/restaurant/lung-khajohn-wat-ket
3784,Baan Ta-Koh-Rai,"112/941 Asian Highway 1 (Bang Pa in-Nakorn Sawan), Khan Ham, Phra Nakhon Si Ayutthaya, 13210, Thailand",14.344874,100.612346,https://guide.michelin.com/en/phra-nakhon-si-syutthaya-region/phra-nakhon-si-ayutthaya/restaurant/baan-ta-koh-rai
3785,Roti Sai Mai Abeedeen-Pranom Sangaroon,"Uthong Road, Pratu Chai, Phra Nakhon Si Ayutthaya, 13000, Thailand",14.3430049,100.5609138,https://guide.michelin.com/en/phra-nakhon-si-syutthaya-region/phra-nakhon-si-ayutthaya/restaurant/roti-sai-mai-abeedeen-pranom-sangaroon
3786,Pa Lek Boat Noodles,"Bang Lan Road (opposite to Maha That temple), Tha Wasukri, Phra Nakhon Si Ayutthaya, 13000, Thailand",14.3554715,100.5691202,https://guide.michelin.com/en/phra-nakhon-si-syutthaya-region/phra-nakhon-si-ayutthaya/restaurant/pa-lek-boat-noodles
3789,Pranom Shredded Chicken Noodles,"47/9 The Building In Front of Panomyong Temple, Ho Rattanachai, Phra Nakhon Si Ayutthaya, 13000, Thailand",14.3621896,100.552816,https://guide.michelin.com/en/phra-nakhon-si-syutthaya-region/phra-nakhon-si-ayutthaya/restaurant/pranom-shredded-chicken-noodles
3790,Roti Sai Mai Mae Pom - Mother Branch,"51/1 Mu 2, Uthong Road, Ho Rattanachai, Phra Nakhon Si Ayutthaya, 13000, Thailand",14.3534184,100.5804553,https://guide.michelin.com/en/phra-nakhon-si-syutthaya-region/phra-nakhon-si-ayutthaya/restaurant/roti-sai-mai-mae-pom-mother-branch
3794,Bokkia Tha Din Daeng,"323 Tha Din Daeng Road, Somdej Chaophraya, Bangkok, 10600, Thailand",13.7335487,100.5025514,https://guide.michelin.com/en/bangkok-region/bangkok/restaurant/bokkia-tha-din-daeng
3797,Pae Bronze Pot Porridge 38 Years,"320 Pracha Rat Sai 1 Road, Bangkok, 10800, Thailand",13.8071327,100.5217115,https://guide.michelin.com/en/bangkok-region/bangkok/restaurant/pae-jok-38-years
3813,Choy (Phuttha Monthon Sai 2),"9/19 Phuttha Monthon Sai 2 Road, Bang Khae Nuea, Bangkok, 10160, Thailand",13.717711,100.39562,https://guide.michelin.com/en/bangkok-region/bangkok/restaurant/choy-phuttha-monthon-sai-2
3827,Somyos,"Chok Chai 4 Soi 72, Bangkok, 10230, Thailand",13.8209715,100.5977885,https://guide.michelin.com/en/bangkok-region/bangkok/restaurant/somyos
3830,Khanom Bueang Wan Phueng Noi (Chok Chai 4),"Chok Chai 4 Soi 54 Yaek 5, Bangkok, 10230, Thailand",13.8160267,100.60023,https://guide.michelin.com/en/bangkok-region/bangkok/restaurant/khanom-bueang-wan-phueng-noi-chok-chai-4
3832,Lim Lao Ngow (China Town),"In front of the buiding no. 299-301, Song Sawat Road, Maha Pruttaram, Bangkok, 10100, Thailand",13.7374199,100.510266,https://guide.michelin.com/en/bangkok-region/bangkok/restaurant/lim-lao-ngow-china-town
3833,Grim Nguan Noodle,"75/70 Soi Chom Thong 16, Chom Thong Road, Bang Kho, Bangkok, 10150, Thailand",13.7001591,100.4711462,https://guide.michelin.com/en/bangkok-region/bangkok/restaurant/grim-nguan-noodle
3844,K. Panich,"431-433 Tanao Road, Sao Ching Cha, Bangkok, 10200, Thailand",13.7520907,100.4983633,https://guide.michelin.com/en/bangkok-region/bangkok/restaurant/k-panich
3845,Somtum Khun Kan,"6 Soi Wachira Thammasatit 23, Sukhumvit 101/1, Bang Chak, Bangkok, 10260, Thailand",13.685326,100.62123,https://guide.michelin.com/en/bangkok-region/bangkok/restaurant/somtum-khun-kan
3849,Sanyod (Sathon-Bang Rak),"89 Soi Charat Wiang, Si Lom, Bangkok, 10500, Thailand",13.7188299,100.5176358,https://guide.michelin.com/en/bangkok-region/bangkok/restaurant/sanyod-sathon-bang-rak
3851,Weng (Woeng Nakhon Kasem),"140 Yaowarat Road, Chong Nonsi, Bangkok, 10100, Thailand",13.7443796,100.5040071,https://guide.michelin.com/en/bangkok-region/bangkok/restaurant/khao-phad-pu-chang-phueak-woeng-nakhon-kasem
3853,Baannai,"102/13 Soi Kamphaeng Phet 5, Set Siri Road, Sam Sen Nai, Bangkok, 10400, Thailand",13.7797284,100.5304943,https://guide.michelin.com/en/bangkok-region/bangkok/restaurant/baannai
3864,Ta Tuay,"57/10 Mu 5,  Soi Ruam Chai 1, Mai Khao, Phuket, 83110, Thailand",8.197292,98.29896,https://guide.michelin.com/en/phuket-region/phuket/restaurant/ta-tuay
3878,Khanom Chin Pa Son,"3 Borirak Bamrung Road, Tai Chang, Phang-Nga, 82000, Thailand",8.466571,98.5328638,https://guide.michelin.com/en/th-phang-nga-region/th-phang-nga/restaurant/khanom-chin-pa-son
3928,Posada Torre Berrueza,"Nuño de Rasura 5, Espinosa de los Monteros, 09560, Spain",43.0766771,-3.5488431,https://guide.michelin.com/en/castilla-y-leon/espinosa-de-los-monteros/restaurant/posada-real-torre-berrueza
3951,Venta de Ulzama,"Carretera NA 1210, Belate (Puerto de), 31797, Spain",43.0329569,-1.6277656,https://guide.michelin.com/en/comunidad-foral-de-navarra/belate-puerto-de/restaurant/venta-de-ulzama
3963,Verat,"Avenida Pallaresa 104, Santa Coloma de Gramenet, 08921, Spain",41.455486,2.2065718,https://guide.michelin.com/en/catalunya/santa-coloma-de-gramenet/restaurant/verat
4348,Gracia GASTROBAR de Barcelona,"5-4-16 Hiroo, Shibuya-ku, Tokyo, 150-0012, Japan",35.650758,139.721829,https://guide.michelin.com/en/tokyo-region/tokyo/restaurant/gracia-gastrobar-de-barcelona
4401,Halmaejip,"1-5 Sajik-ro 12-gil, Jongno-gu, SEOUL, South Korea",37.57563,126.9714,https://guide.michelin.com/en/seoul-capital-area/kr-seoul/restaurant/halmaejip
4429,Bongsanok,"5-6 Banpo-daero 8-gil, Seocho-gu, SEOUL, South Korea",37.4833,127.01245,https://guide.michelin.com/en/seoul-capital-area/kr-seoul/restaurant/bongsanok
4437,Hwa Hae Dang,"1F, 15 Gukhoe-daero 62-gil, Yeongdeungpo-gu, SEOUL, South Korea",37.52689,126.91706,https://guide.michelin.com/en/seoul-capital-area/kr-seoul/restaurant/hwa-hae-dang
4440,Yangyang Memil Makguksu,"10 Donggwang-ro 15-gil, Seocho-gu, SEOUL, South Korea",37.49247,126.98826,https://guide.michelin.com/en/seoul-capital-area/kr-seoul/restaurant/yangyang-memil-makguksu
4441,Jinmi Pyeongyang Naengmyeon,"305-3 Hakdong-ro, Gangnam-gu, SEOUL, South Korea",37.516114,127.036202,https://guide.michelin.com/en/seoul-capital-area/kr-seoul/restaurant/jinmi-pyungyang-naengmyeon
4450,Tasty Cube,"22-8 Yeonsei-ro 5da-gil, Seodaemun-gu, SEOUL, South Korea",37.55677,126.93456,https://guide.michelin.com/en/seoul-capital-area/kr-seoul/restaurant/tasty-cube
4525,Kürbishof,"via Guggal 23, Anterivo, 39040, Italy",46.2746922,11.372941,https://guide.michelin.com/en/trentino-alto-adige/anterivo/restaurant/kurbishof
4535,Romani,"via dei Ronchi 2, Vicomero di Torrile, 43031, Italy",44.8844788,10.3155735,https://guide.michelin.com/en/emilia-romagna/vicomero/restaurant/romani
4548,Al Piave,"via Cormons 6 - Fraz. Corona, Mariano del Friuli, 34071, Italy",45.921916,13.4820929,https://guide.michelin.com/en/friuli-venezia-giulia/mariano-del-friuli/restaurant/al-piave
4606,Pascalucci,"via Appia 1, San Nicola Manfredi, 82010, Italy",41.0942246,14.8327808,https://guide.michelin.com/en/campania/san-nicola-manfredi/restaurant/pascalucci
4714,Easeful Cuisine,"90 South Shaanxi Road, Shanghai, China Mainland",31.223137,121.452217,https://guide.michelin.com/en/shanghai-municipality/shanghai/restaurant/easeful-cuisine
4715,Rongshu Noodle Soup with Yellow Croaker,"688 West Nanjing Road, Shanghai, China Mainland",31.230911,121.464584,https://guide.michelin.com/en/shanghai-municipality/shanghai/restaurant/rongshu-noodle-soup-with-yellow-croaker
4716,Nanxiang Steamed Bun (MTP.City God Temple),"85 Yuyuan Road, City God Temple, Shanghai, China Mainland",31.226445,121.491658,https://guide.michelin.com/en/shanghai-municipality/shanghai/restaurant/nanxiang-steamed-bun-city-god-temple
4722,Rong Cuisine (Huangpu),"128 Taicang Road, Shanghai, China Mainland",31.221725,121.4756813,https://guide.michelin.com/en/shanghai-municipality/shanghai/restaurant/rong-cuisine-huangpu
4724,Lan Ting,"180 Middle Xizang Road, Shanghai, China Mainland",31.231238,121.477039,https://guide.michelin.com/en/shanghai-municipality/shanghai/restaurant/lan-ting
4725,Four Seasons,"68 Yuyuan Road, Shanghai, China Mainland",31.218784,121.429505,https://guide.michelin.com/en/shanghai-municipality/shanghai/restaurant/four-seasons
4728,YongFu Mini (Pudong),"899 South Pudong Road, Shanghai, China Mainland",31.233478,121.510812,https://guide.michelin.com/en/shanghai-municipality/shanghai/restaurant/yongfu-mini
4733,A Niang Mian Guan,"36 Sinan Road, Shanghai, China Mainland",31.219411,121.46196,https://guide.michelin.com/en/shanghai-municipality/shanghai/restaurant/a-niang-mian-guan
4741,au soleil couchant,"1-14-25 Shitennoji, Tennoji-ku, Osaka, 543-0051, Japan",34.6544291,135.514153,https://guide.michelin.com/en/osaka-region/osaka/restaurant/au-soleil-couchant
4764,Shunten Shin,"3-8-10 Ueshio, Tennoji-ku, Osaka, 543-0002, Japan",34.665574,135.516878,https://guide.michelin.com/en/osaka-region/osaka/restaurant/shunten-shin
4769,Hachidori,"1-20-2 Miyakojimakitadori, Miyakojima-ku, Osaka, 534-0014, Japan",34.711264,135.529216,https://guide.michelin.com/en/osaka-region/osaka/restaurant/hachidori
4780,Shokudo Akari,"1-6-27 Sonezakishinchi, Kita-ku, Osaka, 530-0002, Japan",34.697471,135.499218,https://guide.michelin.com/en/osaka-region/osaka/restaurant/shokudo-akari
4781,Chuka Bar Sawada,"2-9-17 Sonezaki, Kita-ku, Osaka, 530-0057, Japan",34.700574,135.500854,https://guide.michelin.com/en/osaka-region/osaka/restaurant/chuka-bar-sawada
4786,Bubu,"2-32 Tamatsukurimotomachi, Tennoji-ku, Osaka, 543-0014, Japan",34.6743449,135.5325017,https://guide.michelin.com/en/osaka-region/osaka/restaurant/bubu
4789,Sakeya Sakana Yoshimura,"1-13-21 Tenjimbashi, Kita-ku, Osaka, 530-0041, Japan",34.694619,135.512545,https://guide.michelin.com/en/osaka-region/osaka/restaurant/sakeya-sakana-yoshimura
4792,Mrs. Yun,"2-6-15 Kitahorie, Nishi-ku, Osaka, 550-0014, Japan",34.673859,135.491444,https://guide.michelin.com/en/osaka-region/osaka/restaurant/mrs-yun
4795,Aka to Shiro,"1-1-41 Sonezakishinchi, Kita-ku, Osaka, 530-0002, Japan",34.696723,135.500535,https://guide.michelin.com/en/osaka-region/osaka/restaurant/aka-to-shiro
4810,Yoshitaka,"2-8-5 Higashishinsaibashi, Chuo-ku, Osaka, 542-0083, Japan",34.671498,135.503024,https://guide.michelin.com/en/osaka-region/osaka/restaurant/yoshitaka
4822,Yamaji,"1-2-3 Sonezakishinchi, Kita-ku, Osaka, 530-0002, Japan",34.696964,135.498388,https://guide.michelin.com/en/osaka-region/osaka/restaurant/yamaji
4830,Naniwa Menjiro,"4-1-17 Namba, Chuo-ku, Osaka, 542-0076, Japan",34.667297,135.497845,https://guide.michelin.com/en/osaka-region/osaka/restaurant/naniwa-menjiro
4843,Kannomiho,"2-2-14 Andojimachi, Chuo-ku, Osaka, 542-0061, Japan",34.676136,135.515754,https://guide.michelin.com/en/osaka-region/osaka/restaurant/kannomiho
4875,Ryori Rihaku,"9-16 Nishinokyo-nagamotocho, Nakagyo-ku, Kyoto, 604-8421, Japan",35.01216,135.738891,https://guide.michelin.com/en/kyoto-region/kyoto/restaurant/ryori-rihaku
4879,Hachiraku,"428-5 Kamibentencho, Higashiyama-ku, Kyoto, 605-0822, Japan",35.000154,135.778445,https://guide.michelin.com/en/kyoto-region/kyoto/restaurant/hachiraku
4889,Kanesho,"155-2 Tokiwacho, Yamatooji-dori Shijo-agaru, Higashiyama-ku, Kyoto, 605-0079, Japan",35.004549,135.772976,https://guide.michelin.com/en/kyoto-region/kyoto/restaurant/kanesho
4912,Akihana,"27 Ichijoji Hinokuchicho, Sakyo-ku, Kyoto, 606-8167, Japan",35.039594,135.792333,https://guide.michelin.com/en/kyoto-region/kyoto/restaurant/akihana
4927,Kikunoi Mugesambo,"524 Washiocho, Higashiyama-ku, Kyoto, 605-0072, Japan",35.0018232,135.7815462,https://guide.michelin.com/en/kyoto-region/kyoto/restaurant/kikunoi-mugesambo
4940,Udonten Yokoyama,"281-1 Ogicho, Teramachi-dori Imadegawa-sagaru, Kamigyo-ku, Kyoto, 602-0848, Japan",35.027574,135.76799,https://guide.michelin.com/en/kyoto-region/kyoto/restaurant/udonten-yokoyama
4941,Nonkiya Mune,"127-5 Kinuyacho, Nakagyo-ku, Kyoto, 604-0804, Japan",35.015165,135.763177,https://guide.michelin.com/en/kyoto-region/kyoto/restaurant/nonkiya-mune
5096,Xin Tai Le (Haizhu),"93-99 Jiangnan West Road, Guangzhou, China Mainland",23.096074,113.263399,https://guide.michelin.com/en/guangdong-province/guangzhou/restaurant/xin-tai-le-haizhu
5097,Dong Xing (Tianhe),"6-8 Tianhe North Road, Guangzhou, China Mainland",23.143168,113.310222,https://guide.michelin.com/en/guangdong-province/guangzhou/restaurant/dong-xing-tianhe
5098,Da Ge Fan (Tangxiayong West Road),"69 Tangxiayong West Road, Guangzhou, China Mainland",23.127803,113.371716,https://guide.michelin.com/en/guangdong-province/guangzhou/restaurant/da-ge-fan-tangxiayong-west-road
5099,Pandan,"33 Zhongshan Third Road, Guangzhou, China Mainland",23.128478,113.277431,https://guide.michelin.com/en/guangdong-province/guangzhou/restaurant/pandan-yuexiu
5100,Dai Yong Town,"59 Tianhe East Road, Guangzhou, China Mainland",23.133389,113.328145,https://guide.michelin.com/en/guangdong-province/guangzhou/restaurant/dai-yong-town
5101,Soodle,"62 Jinsui Road, Guangzhou, China Mainland",23.125483,113.317397,https://guide.michelin.com/en/guangdong-province/guangzhou/restaurant/soodle-jinsui-road
5103,Xin Tai Le (Yuexiu),"65 Panfu Road, Guangzhou, China Mainland",23.138328,113.25471,https://guide.michelin.com/en/guangdong-province/guangzhou/restaurant/xin-tai-le-yuexiu
5104,Wan Hin,"126 Huangpu Avenue West, Guangzhou, China Mainland",23.127879,113.336359,https://guide.michelin.com/en/guangdong-province/guangzhou/restaurant/wan-hin
5106,Xiguan Heng Ji Popo Mian (Dezheng Middle Road),"244 Dezheng Middle Road, Guangzhou, China Mainland",23.126219,113.270304,https://guide.michelin.com/en/guangdong-province/guangzhou/restaurant/xiguan-heng-ji-popo-mian-dezheng-middle-road
5107,Liang Jie Nanning Pumiao Shengzha Mifen,"242 Yinghua Street, Xiaogang Bay, Guangzhou, China Mainland",23.071435,113.288776,https://guide.michelin.com/en/guangdong-province/guangzhou/restaurant/liang-jie-nanning-pumiao-shengzha-mifen
5108,Wen Ji Yixinji,"10 Xuanyuanqiao, 76 Baohua Road, Guangzhou, China Mainland",23.116787,113.236603,https://guide.michelin.com/en/guangdong-province/guangzhou/restaurant/wen-ji-yixinji
5110,Ya Yuan,"14 Chaotian Road, Guangzhou, China Mainland",23.126347,113.55284,https://guide.michelin.com/en/guangdong-province/guangzhou/restaurant/ya-yuan
5111,Mamak,"299 Tianhe Road, Guangzhou, China Mainland",23.136445,113.321528,https://guide.michelin.com/en/guangdong-province/guangzhou/restaurant/mamak
5115,Zhu Zai Ji Shi Fu (Jiangnan Avenue),"429 Jiangnan Avenue South, Guangzhou, China Mainland",23.087732,113.279196,https://guide.michelin.com/en/guangdong-province/guangzhou/restaurant/zhu-zai-ji-shi-fu-jiangnan-avenue
5116,Ease (Yuexiu),"289 Guangzhou Middle Avenue, Guangzhou, China Mainland",23.126322,113.308971,https://guide.michelin.com/en/guangdong-province/guangzhou/restaurant/ease-yuexiu
5117,Xiang Qun (Longjin East Road),"853-857 Longjin East Road, Guangzhou, China Mainland",23.12459,113.245664,https://guide.michelin.com/en/guangdong-province/guangzhou/restaurant/xiang-qun-longjin-east-road
5118,Jian Ji (Liwan),"299-303 Changshou East Road, Guangzhou, China Mainland",23.120784,113.245023,https://guide.michelin.com/en/guangdong-province/guangzhou/restaurant/jian-ji
5119,Dayang (Wenming Road),"160-1 Wenming Road, Guangzhou, China Mainland",23.125167,113.268745,https://guide.michelin.com/en/guangdong-province/guangzhou/restaurant/dayang-wenming-road
5120,Tong Ji,"3 Fuguangli, Changshou East Road, Guangzhou, China Mainland",23.120873,113.244808,https://guide.michelin.com/en/guangdong-province/guangzhou/restaurant/tong-ji
5122,FT · Bak Kut Teh,"36-48 Wenming Road, Guangzhou, China Mainland",23.124093,113.265192,https://guide.michelin.com/en/guangdong-province/guangzhou/restaurant/ft-bak-kut-teh
5123,Cheungloi Cook (Huacheng Avenue),"85 Huacheng Avenue, Guangzhou, China Mainland",23.122833,113.316683,https://guide.michelin.com/en/guangdong-province/guangzhou/restaurant/cheungloi-cook-huacheng-avenue
5125,Chuan's Kitchen,"322 Huanshi East Road, Guangzhou, China Mainland",23.14003,113.276757,https://guide.michelin.com/en/guangdong-province/guangzhou/restaurant/chuan-s-kitchen
5126,Ze 8,"174 Binjiang West Road, Guangzhou, China Mainland",23.110893,113.254877,https://guide.michelin.com/en/guangdong-province/guangzhou/restaurant/ze-8
5127,Stay Here,"23 Xigang Road, Guangzhou, China Mainland",23.093254,113.275449,https://guide.michelin.com/en/guangdong-province/guangzhou/restaurant/stay-here
5210,Sin Huat Eating House,"659/661 Lorong 35 Geylang, 389589, Singapore",1.314489,103.8885,https://guide.michelin.com/en/singapore-region/singapore/restaurant/sin-huat-eating-house
5241,The Toas,"353, Section 1, Xiangshang Road, West District, Taichung, Taipei & Taichung",24.23813,120.8947,https://guide.michelin.com/en/taichung-region/taichung/restaurant/the-toas
5242,Fu Juang Yuan,"203, Section 1, Meicun Road, West District, Taichung, 403, Taipei & Taichung",24.149863,120.662012,https://guide.michelin.com/en/taichung-region/taichung/restaurant/fu-juang-yuan
5243,Wen Tao,"191, Section 3, Taiyuan Road, Beitun District, Taichung, 406, Taipei & Taichung",24.18799,120.75783,https://guide.michelin.com/en/taichung-region/taichung/restaurant/wen-tao
5244,Chen Ming Tung Braised Pork Rice,"304 Zhongxiao Road, East District, Taichung, Taipei & Taichung",24.80436,120.98463,https://guide.michelin.com/en/taichung-region/taichung/restaurant/chen-ming-tung-braised-pork-rice
5246,Rong Rong Yuan,"25, Section 4, Xinyi Road, Da'an District, Taipei, 106, Taipei & Taichung",25.02641,121.53893,https://guide.michelin.com/en/taipei-region/taipei/restaurant/rong-rong-yuan
5247,Beef Noodles and Beef Entrails Soup,"63 Raohe Street, Songshan District, Taipei, 110, Taipei & Taichung",25.0503,121.57307,https://guide.michelin.com/en/taipei-region/taipei/restaurant/beef-noodles-and-beef-entrails-soup
5248,A Kuo Lu Wei,"226 Raohe Street, Songshan District, Taipei, 110, Taipei & Taichung",25.050865,121.57748,https://guide.michelin.com/en/taipei-region/taipei/restaurant/a-kuo-lu-wei
5249,Unnamed Clay Oven Roll,"Lane 311, Section 2, Zhonghua Road, Zhongzheng District, Taipei, 110, Taipei & Taichung",25.0285,121.57261,https://guide.michelin.com/en/taipei-region/taipei/restaurant/unnamed-clay-oven-roll
5251,Mu Gong Noodles,"37 Fugui Street, East District, Taichung, Taipei & Taichung",24.1498003,120.695687,https://guide.michelin.com/en/taichung-region/taichung/restaurant/mu-gong-noodles
5253,Fresh Fish Stock,"75 Beitun Road, North District, Taichung, Taipei & Taichung",24.16144,120.69227,https://guide.michelin.com/en/taichung-region/taichung/restaurant/fresh-fish-stock
5254,Wang's Broth,"17-4 Huaxi Street, Wanhua District, Taipei, 110, Taipei & Taichung",25.0398526,121.498462,https://guide.michelin.com/en/taipei-region/taipei/restaurant/hsiao-wang-steamed-minced-pork-with-pickles-in-broth
5255,Dong Shan Zhan,"380, Section 1, Dongshan Road, Beitun District, Taichung, 406, Taipei & Taichung",24.17669,120.7289,https://guide.michelin.com/en/taichung-region/taichung/restaurant/dong-shan-zhan
5256,Wu Wang Tsai Chi,"29, Lane 313, Section 2, Zhonghua Road, Zhongzheng District, Taipei, 100, Taipei & Taichung",25.02909,121.51338,https://guide.michelin.com/en/taipei-region/taipei/restaurant/wu-wang-tsai-chi
5257,Mai Mien Yen Tsai,"106 Anxi Street, Datong District, Taipei, 103, Taipei & Taichung",25.0610632,121.5097972,https://guide.michelin.com/en/taipei-region/taipei/restaurant/mai-mien-yen-tsai
5260,Yuan Fang Guabao,"17-2 Huaxi Street, Wanhua District, Taipei, 108, Taipei & Taichung",25.0399642,121.4984741,https://guide.michelin.com/en/taipei-region/taipei/restaurant/yuan-fang-guabao
5261,Yi Jia Zi,"79 Kangding Road, Wanhua District, Taipei, 108, Taipei & Taichung",25.0404478,121.5021587,https://guide.michelin.com/en/taipei-region/taipei/restaurant/yi-jia-zi
5262,Ke Kou Beef Noodles,"911 Dadun Road, Xitun District, Taichung, Taipei & Taichung",24.1571207,120.6506196,https://guide.michelin.com/en/taichung-region/taichung/restaurant/ke-kou-beef-noodles
5272,Chin Chih Yuan (Central),"170 Chenggong Road, Central District, Taichung, 400, Taipei & Taichung",24.14131,120.6825015,https://guide.michelin.com/en/taichung-region/taichung/restaurant/chin-chih-yuan
5274,Good Friend Cold Noodles,"31 Danan Road, Shilin District, Taipei, 110, Taipei & Taichung",25.0891041,121.5254724,https://guide.michelin.com/en/taipei-region/taipei/restaurant/good-friend-cold-noodles
5275,Tsui Feng Yuan,"5, Lane 8, Section 3, Bade Road, Songshan District, Taipei, 105, Taipei & Taichung",25.0475689,121.5509402,https://guide.michelin.com/en/taipei-region/taipei/restaurant/tsui-feng-yuan
5278,Jin Shang Hsuan,"111, Lane 155, Dunhua North Road, Songshan District, Taipei, Taipei & Taichung",25.03841,121.5637,https://guide.michelin.com/en/taipei-region/taipei/restaurant/jin-shang-hsuan
5280,Hai Yu Pork Ribs,"49 Dadong Road, Shilin District, Taipei, 110, Taipei & Taichung",25.0897456,121.5253284,https://guide.michelin.com/en/taipei-region/taipei/restaurant/hai-yu-pork-ribs
5281,Lu Yuan,"248 Minquan Road, West District, Taichung, 403, Taipei & Taichung",24.145914,120.671146,https://guide.michelin.com/en/taichung-region/taichung/restaurant/lu-yuan
5282,Cabbage Rice and Pork Rib Soup,"2, Lane 17, Section 3, Yanping North Road, Datong District, Taipei, 110, Taipei & Taichung",25.0285,121.57261,https://guide.michelin.com/en/taipei-region/taipei/restaurant/cabbage-rice-and-pork-rib-soup
5284,Lo Chi Hsiao Chao,"27, Alley 50, Lane 39, Tonghua Street, Da'an District, Taipei, 110, Taipei & Taichung",25.030315,121.55536,https://guide.michelin.com/en/taipei-region/taipei/restaurant/lo-chi-hsiao-chao
5287,Peng Cheng Tang,"377 Yichang Road, Taiping District, Taichung, 411, Taipei & Taichung",24.1449224,120.7137408,https://guide.michelin.com/en/taichung-region/taichung/restaurant/peng-cheng-tang
5288,Rong's Pork Liver,"68 Ningxia Road, Datong District, Taipei, 110, Taipei & Taichung",25.0569258,121.5154061,https://guide.michelin.com/en/taipei-region/taipei/restaurant/rong-s-pork-liver
5291,A Kun Mian,"142 Pingdeng Street, Central District, Taichung, 400, Taipei & Taichung",24.143,120.68242,https://guide.michelin.com/en/taichung-region/taichung/restaurant/a-kun-mian
5292,Tai Ke Meat Congee,"722-1, Section 2, Wuquan West Road, Nantun District, Taichung, 408, Taipei & Taichung",24.13999,120.61952,https://guide.michelin.com/en/taichung-region/taichung/restaurant/tai-ke-meat-congee
5293,Moment in Beijing,"57 Wuquan 7th Street, West District, Taichung, 403, Taipei & Taichung",24.135087,120.663129,https://guide.michelin.com/en/taichung-region/taichung/restaurant/moment-in-beijing
5294,Talking Heads,"25 Siwei Road, Da'an District, Taipei, Taipei & Taichung",25.035467,121.5481695,https://guide.michelin.com/en/taipei-region/taipei/restaurant/talking-heads
5295,Mother's Kitchen,"97 Tianmu East Road, Shilin District, Taipei, 111, Taipei & Taichung",25.118253,121.5360397,https://guide.michelin.com/en/taipei-region/taipei/restaurant/mother-s-kitchen
5299,Chang Hung Noodles,"15 Huaxi Street, Wanhua District, Taipei, 108, Taipei & Taichung",25.0394902,121.4985619,https://guide.michelin.com/en/taipei-region/taipei/restaurant/chang-hung-noodles
5300,Liang Chi Lu Wei,"Alley 50, Lane 39, Tonghua Street, Da'an District, Taipei, 110, Taipei & Taichung",25.0285,121.57261,https://guide.michelin.com/en/taipei-region/taipei/restaurant/liang-chi-lu-wei
5303,San Hsi Shih Tang,"140 Yongchun East Road, Nantun District, Taichung, 408, Taipei & Taichung",24.1376895,120.632626,https://guide.michelin.com/en/taichung-region/taichung/restaurant/san-hsi-shih-tang
5305,Taichung Meatball,"529, Section 3, Fuxing Road, South District, Taichung, 402, Taipei & Taichung",24.11992,120.66444,https://guide.michelin.com/en/taichung-region/taichung/restaurant/taichung-meatball
5307,Hsiung Chi Scallion Pancake,"2, Lane 108, Section 4, Luosifu Road, Zhongzheng District, Taipei, 110, Taipei & Taichung",25.0285,121.57261,https://guide.michelin.com/en/taipei-region/taipei/restaurant/hsiung-chi-scallion-pancake
5309,Chen Tung Pork Ribs Medicinal Herbs Soup,"160 Raohe Street, Songshan District, Taipei, 105, Taipei & Taichung",25.0505498,121.5758494,https://guide.michelin.com/en/taipei-region/taipei/restaurant/chen-tung-pork-ribs-medicinal-herbs-soup-1190565
5310,Orient Dragon,"271-1, Section 2, Gongyi Road, Nantun District, Taichung, 408, Taipei & Taichung",24.13999,120.61952,https://guide.michelin.com/en/taichung-region/taichung/restaurant/orient-dragon
5311,Luo Jia Food,"65, Section 3, Xiangshang Road, Nantun District, Taichung, Taipei & Taichung",24.23813,120.8947,https://guide.michelin.com/en/taichung-region/taichung/restaurant/luo-jia-food
5312,Fu Kuei Ting,"31, Lane 18, Section 2, Sanmin Road, Central District, Taichung, 400, Taipei & Taichung",24.140151,120.678196,https://guide.michelin.com/en/taichung-region/taichung/restaurant/fu-kuei-ting
5315,Sung Chu Yuan,"546 Yonggong Road, Shilin District, Taipei, Taipei & Taichung",25.1403361,121.5678927,https://guide.michelin.com/en/taipei-region/taipei/restaurant/sung-chu-yuan
5316,Hao Kung Tao Chin Chi Yuan (Da'an),"28-1, Yongkang Street, Da'an District, Taipei, 106, Taipei & Taichung",25.0335783,121.5299894,https://guide.michelin.com/en/taipei-region/taipei/restaurant/hao-kung-tao-chin-chi-yuan-da-an
5317,Fang Chia Shredded Chicken on the Rice,"44-2 Ningxia Road, Datong District, Taipei, 110, Taipei & Taichung",25.0544381,121.5147203,https://guide.michelin.com/en/taipei-region/taipei/restaurant/fang-chia-shredded-chicken-on-the-rice
5318,No Name Noodles,"69 Shifu Road, Central District, Taichung, 400, Taipei & Taichung",24.1396572,120.6801039,https://guide.michelin.com/en/taichung-region/taichung/restaurant/no-name-noodles
5321,Liu Yu Zi,"Ningxia Road, Datong District, Taipei, 110, Taipei & Taichung",25.054365,121.51474,https://guide.michelin.com/en/taipei-region/taipei/restaurant/liu-yu-zi
5323,House of Dawn,"104 Dadun 18th Street, Xitun District, Taichung, Taipei & Taichung",24.15566,120.65194,https://guide.michelin.com/en/taichung-region/taichung/restaurant/house-of-dawn
5324,Moon Pavilion,"20 Zhongshan Road, Central District, Taichung, Taipei & Taichung",24.1377354,120.6835009,https://guide.michelin.com/en/taichung-region/taichung/restaurant/moon-pavilion
5327,Niou Jia Juang,"7 Xinfeng Street, Dongshi District, Taichung, Taipei & Taichung",24.2627205,120.8246395,https://guide.michelin.com/en/taichung-region/taichung/restaurant/niou-jia-juang
5329,Shih Chia Big Rice Ball,"58, Section 3, Yanping North Road, Datong District, Taipei, 110, Taipei & Taichung",25.065262,121.51111,https://guide.michelin.com/en/taipei-region/taipei/restaurant/shih-chia-big-rice-ball
5330,Jen Ho Yuan,"16 Jinzhou Street, Zhongshan District, Taipei, 104, Taipei & Taichung",25.060267,121.523954,https://guide.michelin.com/en/taipei-region/taipei/restaurant/jen-ho-yuan
5337,Vinum,"704 Bay St., New York, 10304, United States",40.624893,-74.074715,https://guide.michelin.com/en/new-york-state/new-york/restaurant/vinum
5472,Pleasant House Pub,"2119 S. Halstead Ave., Chicago, 60608, United States",41.8535715,-87.6464616,https://guide.michelin.com/en/illinois/chicago/restaurant/pleasant-house-pub
5646,Zilt & Zoet,"Dorpsweg 153, Maartensdijk, 3738 CD, Netherlands",52.1590092,5.1899938,https://guide.michelin.com/en/utrecht/maartensdijk/restaurant/zilt-zoet
5727,Gasthof Adler,"Stadtstrasse 22, Sempach, 6204, Switzerland",47.1362208,8.1913012,https://guide.michelin.com/en/luzern-region/sempach/restaurant/gasthof-adler
5740,Chrüter Gänterli,"Hauptstrasse 111, Escholzmatt, 6182, Switzerland",46.9136328,7.9339915,https://guide.michelin.com/en/luzern-region/escholzmatt/restaurant/chruter-ganterli
5799,Hirschen,"Steigstrasse 4, Oberstammheim, 8477, Switzerland",47.6319383,8.8012247,https://guide.michelin.com/en/zurich-region/oberstammheim/restaurant/hirschen
5823,L'Oxygène,"La Charmette, Valmorel, 73260, France",45.4715051,6.4556705,https://guide.michelin.com/en/auvergne-rhone-alpes/valmorel/restaurant/l-oxygene
5843,Bellavista,"Place du Foiral, Prats-de-Mollo-la-Preste, 66230, France",42.4043058,2.4801504,https://guide.michelin.com/en/occitanie/prats-de-mollo-la-preste/restaurant/bellavista
5845,Julien,"Route de Strasbourg, Fouday, 67130, France",48.42262,7.18412,https://guide.michelin.com/en/grand-est/fouday/restaurant/julien
5848,Le Chalet,"4 avenue Durandeau, Ax-les-Thermes, 09110, France",42.7184266,1.8395359,https://guide.michelin.com/en/occitanie/ax-les-thermes/restaurant/le-chalet123050
5950,Hostellerie Saint-Clément,"Col de Curebourse, Vic-sur-Cère, 15800, France",44.968426,2.64346,https://guide.michelin.com/en/auvergne-rhone-alpes/vic-sur-cre/restaurant/hostellerie-saint-clement
5974,Le Bourbon,"5 place de la Victoire, Yssingeaux, 43200, France",45.1439578,4.1242798,https://guide.michelin.com/en/auvergne-rhone-alpes/yssingeaux/restaurant/le-bourbon
6018,Les Quatre Saisons,"3 route du Frenz, Le Frenz, 68820, France",47.9255981,6.9506039,https://guide.michelin.com/en/grand-est/le-frenz/restaurant/les-quatre-saisons
6040,La Pointe du Cap Coz,"153 avenue de la Pointe, au Cap Coz, Fouesnant, 29170, France",47.8910288,-3.9730052,https://guide.michelin.com/en/bretagne/fouesnant/restaurant/la-pointe-du-cap-coz
6137,Le Tilleul de Sully,"Le Bourg, Montgibaud, 19210, France",45.5181881,1.4224043,https://guide.michelin.com/en/nouvelle-aquitaine/montgibaud/restaurant/le-tilleul-de-sully
6154,L'Arôme,"9 rue des Trois-Rois, Marseille, 13006, France",43.2942661,5.3847047,https://guide.michelin.com/en/provence-alpes-cote-dazur/marseille/restaurant/l-arome508665
6161,À la Route d'Argent,"1 route de Gabriac, Bozouls, 12340, France",44.46856,2.73242,https://guide.michelin.com/en/occitanie/bozouls/restaurant/a-la-route-d-argent
6169,La Rochette,"500 lieu-dit La Rochette, Labaroche, 68910, France",48.1007117,7.1940112,https://guide.michelin.com/en/grand-est/labaroche/restaurant/la-rochette
6229,Auberge Metzger,"55 rue Principale, Natzwiller, 67130, France",48.43649,7.25798,https://guide.michelin.com/en/grand-est/natzwiller/restaurant/auberge-metzger
6284,La Belle Étoile,"Le Bourg, La Roque-Gageac, 24250, France",44.825863,1.182383,https://guide.michelin.com/en/nouvelle-aquitaine/la-roque-gageac/restaurant/la-belle-etoile
6305,Le Balcon,"2 Grande-Rue, Combeaufontaine, 70120, France",47.7119734,5.8879472,https://guide.michelin.com/en/bourgogne-franche-comte/combeaufontaine/restaurant/le-balcon
6317,Nulle Part Ailleurs,"rue de la Gare 10, Couvin, 5660, Belgium",50.054245,4.492866,https://guide.michelin.com/en/namur/couvin/restaurant/nulle-part-ailleurs
6321,La Charcuterie,"avenue Paul Dejaer 16, Saint-Gilles, 1060, Belgium",50.8262033,4.345037,https://guide.michelin.com/en/bruxelles-capitale/be-saint-gilles/restaurant/la-charcuterie
6323,Le Bistrot des Saveurs,"rue de La Roche 32, Houffalize, 6660, Belgium",50.1318789,5.7746418,https://guide.michelin.com/en/be-luxembourg/houffalize/restaurant/le-bistrot-des-saveurs
6344,Des Ardennes,"rue de la Hate 1, Corbion, 6838, Belgium",49.7966152,5.0096033,https://guide.michelin.com/en/be-luxembourg/corbion/restaurant/des-ardennes
6363,La Métairie,"Wanne 4, Wanne, 4980, Belgium",50.3559437,5.9202275,https://guide.michelin.com/en/liege/wanne/restaurant/la-metairie
6377,Les Terrasses de l'Our,"rue de la Lesse 1, Our, 6852, Belgium",49.96228,5.123651,https://guide.michelin.com/en/be-luxembourg/our/restaurant/les-terrasses-de-l-our
6379,Le Moulin,"rue de la Lesse 61, Daverdisse, 6929, Belgium",50.0275637,5.1158029,https://guide.michelin.com/en/be-luxembourg/daverdisse/restaurant/le-moulin
6405,Tero,"rue de Champles 56, Bierges, 1301, Belgium",50.7233915,4.5753953,https://guide.michelin.com/en/brabant-wallon/bierges/restaurant/tero
6427,Royal H.-Bonhomme,"rue de la Reffe 26, Remouchamps, 4920, Belgium",50.4798462,5.71121,https://guide.michelin.com/en/liege/remouchamps/restaurant/royal-h-bonhomme
